<?xml version="1.0" encoding="UTF-8"?>
<kml xmlns="http://www.opengis.net/kml/2.2" xmlns:gx="http://www.google.com/kml/ext/2.2" xmlns:kml="http://www.opengis.net/kml/2.2" xmlns:atom="http://www.w3.org/2005/Atom">
<Document>
	<name>Dummy.kml</name>
	<StyleMap id="m_ylw-pushpin">
		<Pair>
			<key>normal</key>
			<styleUrl>#s_ylw-pushpin</styleUrl>
		</Pair>
		<Pair>
			<key>highlight</key>
			<styleUrl>#s_ylw-pushpin_hl</styleUrl>
		</Pair>
	</StyleMap>
	<StyleMap id="msn_ylw-pushpin">
		<Pair>
			<key>normal</key>
			<styleUrl>#sn_ylw-pushpin0</styleUrl>
		</Pair>
		<Pair>
			<key>highlight</key>
			<styleUrl>#sh_ylw-pushpin</styleUrl>
		</Pair>
	</StyleMap>
	<StyleMap id="msn_ylw-pushpin0">
		<Pair>
			<key>normal</key>
			<styleUrl>#sn_ylw-pushpin</styleUrl>
		</Pair>
		<Pair>
			<key>highlight</key>
			<styleUrl>#sh_ylw-pushpin0</styleUrl>
		</Pair>
	</StyleMap>
	<Style id="s_ylw-pushpin">
		<IconStyle>
			<scale>1.1</scale>
			<Icon>
				<href>http://maps.google.com/mapfiles/kml/pushpin/ylw-pushpin.png</href>
			</Icon>
			<hotSpot x="20" y="2" xunits="pixels" yunits="pixels"/>
		</IconStyle>
	</Style>
	<Style id="s_ylw-pushpin_hl">
		<IconStyle>
			<scale>1.3</scale>
			<Icon>
				<href>http://maps.google.com/mapfiles/kml/pushpin/ylw-pushpin.png</href>
			</Icon>
			<hotSpot x="20" y="2" xunits="pixels" yunits="pixels"/>
		</IconStyle>
	</Style>
	<Style id="sh_ylw-pushpin">
		<IconStyle>
			<scale>1.3</scale>
			<Icon>
				<href>http://maps.google.com/mapfiles/kml/pushpin/ylw-pushpin.png</href>
			</Icon>
			<hotSpot x="20" y="2" xunits="pixels" yunits="pixels"/>
		</IconStyle>
		<BalloonStyle>
		</BalloonStyle>
		<LineStyle>
			<color>ffff0000</color>
			<width>3</width>
		</LineStyle>
	</Style>
	<Style id="sh_ylw-pushpin0">
		<IconStyle>
			<scale>1.3</scale>
			<Icon>
				<href>http://maps.google.com/mapfiles/kml/pushpin/ylw-pushpin.png</href>
			</Icon>
			<hotSpot x="20" y="2" xunits="pixels" yunits="pixels"/>
		</IconStyle>
		<BalloonStyle>
		</BalloonStyle>
		<LineStyle>
			<color>ff00ff00</color>
		</LineStyle>
		<PolyStyle>
			<color>ff00ff00</color>
		</PolyStyle>
	</Style>
	<Style id="sn_ylw-pushpin">
		<IconStyle>
			<scale>1.1</scale>
			<Icon>
				<href>http://maps.google.com/mapfiles/kml/pushpin/ylw-pushpin.png</href>
			</Icon>
			<hotSpot x="20" y="2" xunits="pixels" yunits="pixels"/>
		</IconStyle>
		<BalloonStyle>
		</BalloonStyle>
		<LineStyle>
			<color>ff00ff00</color>
		</LineStyle>
		<PolyStyle>
			<color>ff00ff00</color>
		</PolyStyle>
	</Style>
	<Style id="sn_ylw-pushpin0">
		<IconStyle>
			<scale>1.1</scale>
			<Icon>
				<href>http://maps.google.com/mapfiles/kml/pushpin/ylw-pushpin.png</href>
			</Icon>
			<hotSpot x="20" y="2" xunits="pixels" yunits="pixels"/>
		</IconStyle>
		<BalloonStyle>
		</BalloonStyle>
		<LineStyle>
			<color>ffff0000</color>
			<width>3</width>
		</LineStyle>
	</Style>
	<Folder>
		<name>Dummy</name>
		<open>1</open>
		<Placemark>
			<name>North Sea Baseline Survey</name>
			<LookAt>
				<longitude>-14.17524279786478</longitude>
				<latitude>60.37520530490594</latitude>
				<altitude>0</altitude>
				<heading>14.71479671344384</heading>
				<tilt>0</tilt>
				<range>3856510.033850046</range>
				<gx:altitudeMode>relativeToSeaFloor</gx:altitudeMode>
			</LookAt>
			<styleUrl>#m_ylw-pushpin</styleUrl>
			<Point>
				<gx:drawOrder>1</gx:drawOrder>
				<coordinates>1.691313183347662,58.61972467118701,0</coordinates>
			</Point>
		</Placemark>
		<Placemark>
			<name>Atlantic Drift Monitoring Programme</name>
			<styleUrl>#msn_ylw-pushpin</styleUrl>
			<LineString>
				<tessellate>1</tessellate>
				<coordinates>
					-9.427121642894894,58.4163058949924,0 -8.468502051290491,58.34111734359385,0 -8.673830274638085,58.33876046951355,0 -8.781022810298202,58.35880671169617,0 -9.070715051392433,58.35104544915674,0 -9.381831731540117,58.36720571928451,0 -9.453066998697308,58.38016177449438,0 -9.669828192548975,58.35811317885906,0 -9.979883036302667,58.37282836158031,0 -10.15767888550833,58.40427234416653,0 -10.2662489921045,58.36242511120255,0 -10.46868082850526,58.35720309324036,0 -10.6462288299444,58.38793097718158,0 -10.86001191019451,58.36397041955954,0 -11.03741341897505,58.39415064603162,0 -11.2387745810332,58.38771860845055,0 -11.41601739988943,58.41735848545049,0 -11.59343936623788,58.44673295615669,0 -11.69997515804898,58.46423059231164,0 -11.9488014764629,58.50468759196748,0 -12.33787760555481,58.50692655149664,0 -12.51551851775431,58.53498796236369,0 -12.69327874124026,58.56276272994268,0 -12.97765257790146,58.60670675775103,0 -13.15561587365494,58.63383555945092,0 -13.33376316570609,58.6607010305832,0 -13.51182024581223,58.68732661600456,0 -13.58307424504118,58.69790985571571,0 -13.86838499767211,58.73982821545424,0 -13.93978092795521,58.75020194082038,0 -14.22544440828858,58.79132192131542,0 -14.26640992299032,58.85653569664344,0 -14.44596518902747,58.88171907134249,0 -14.60500796930754,58.94355199867963,0 -14.71246720363286,58.95850876959197,0 -14.93425305628257,59.04811439933755,0 -15.09464782328058,59.10930321223518,0 -15.27498417814387,59.13342361946404,0 -15.53455367424008,59.22692259059227,0 -15.60685460313487,59.23637574629812,0 -15.89635814160775,59.2737753709417,0 -16.0775600340349,59.29679342056221,0 -16.15008555736617,59.30593486165386,0 -16.31301976030718,59.36563777292222,0 -16.60374211181022,59.40150825273891,0 -16.67649893423423,59.41037430629751,0 -16.83187956659583,59.48791920750091,0 -17.0142517885107,59.50972894682673,0 -17.19683489899719,59.53126542098937,0 -17.36237440893995,59.58965634302468,0 -17.51992744041761,59.66639190354897,0 -17.68658235632258,59.72440119170728,0 -17.87048289187056,59.74506395324858,0 -18.14037746717034,59.83349060433068,0 -18.30870746534851,59.89083793511114,0 -18.38267822824971,59.89882481689724,0 -18.5677470171144,59.91861190436438,0 -18.72923275537526,59.99414693098581,0 -18.84066920381682,60.00576856834569,0 -19.01100740425052,60.06228986940158,0 -19.24887101352129,60.1449099813857,0 -19.43572399487001,60.16356805975077,0 -19.60792603684149,60.21937993535623,0 -19.77329082674827,60.29382433456056,0 -20.05974783789184,60.35999405565826,0 -20.28835227618162,60.4784473894974,0 -20.45666715563303,60.55229727581956,0 -20.64657008668426,60.56947819005808,0 -20.93739917799389,60.6341414126975,0 -21.10819154599546,60.7072942622172,0 -21.36303961135488,60.76792743071856,0 -21.53567020334338,60.84066495701881,0 -21.7280404666916,60.85644347723932,0 -22.024133241673,60.91914271523752,0 -22.10140127677187,60.92525610587901,0 -22.2768454516942,60.99722483644801,0 -22.45899213137352,61.05001860711432,0 -22.75311836965857,61.13036952240327,0 -22.81983926038205,61.17412002149378,0 -23.11641454633855,61.254006899305,0 -23.30204068844291,61.30607412057606,0 -23.38072641884848,61.31159293742523,0 -23.56212779798923,61.38251319514979,0 -23.86826407558723,61.44201561546545,0 -24.06646182979664,61.45504616638978,0 -24.1458162712492,61.46018770371908,0 -24.32096057682065,61.5686199109232,0 -24.64018293659739,61.58837588328235,0 -24.8270321251446,61.65805522815079,0 -25.01886893329102,61.70812600671901,0 -25.21990139279422,61.71968422206698,0 -25.30038378736814,61.72422175047163,0 -25.49012451734763,61.79323358387934,0 -25.69234359014392,61.80430639383587,0 -25.8947995709917,61.8150887128655,0 -26.21941335790431,61.83188760531925,0 -26.49764390169192,61.88469487034759,0 -26.7014885703359,61.89444122940586,0 -26.90578127915414,61.90401893007376,0 -27.1103248793403,61.91331630748572,0 -27.31510254444925,61.92231548395615,0 -27.5202421065128,61.93109387501799,0 -27.72576776607184,61.93964848891536,0 -27.93152734301567,61.94790081139116,0 -28.13752101125019,61.95585497158892,0 -28.34452941907756,61.96388851204807,0 -28.55130677228041,61.97138399857241,0 -28.7583297886498,61.97856630785626,0 -28.96580117700066,61.9855645192178,0 -29.17362519034612,61.99229431596719,0 -29.38167875035332,61.99872498113255,0 -29.59007243710767,62.00487749266758,0 -29.79895626012564,62.0108264649593,0 -30.00807537925644,62.01646032791378,0 -30.21742416341205,62.02179054888782,0 -30.42592617308419,62.08550317816335,0 -30.55150680199075,62.12753448102072,0 -30.76137902366184,62.22998436941473,0 -30.84522932202884,62.32962874585362,0 -31.05825730538705,62.39280893871989,0 -31.05804633184224,62.49077933128207,0 -31.27306300051546,62.53422764012324,0 -31.4038468996894,62.63495214566278,0 -31.62300335843297,62.737338226111,0 -31.84449238095636,62.83969896635682,0 -31.93444886242342,62.90036464153972,0 -32.15884575078176,63.00251930730336,0 -32.16080985653201,63.04209846464268,0 -32.38760593508113,63.14414060786685,0 -32.61679130169434,63.24614194848115,0 -32.84874360232671,63.34821281450657,0 -33.083260611592,63.45026817675281,0 -33.32038531469665,63.55230253923163,0 -33.55500057030984,63.61410638180961,0 -33.78848094655416,63.65559769896719,0 -33.93419728867295,63.71653282814113,0 -34.26248594780326,63.75803441613662,0 -34.50296848257363,63.81884884527677,0 -34.74207658512402,63.85944572904779,0 -34.9857602383826,63.91980644578258,0 
				</coordinates>
			</LineString>
		</Placemark>
		<Placemark>
			<name>Coastal Habitat Mapping Initiative</name>
			<styleUrl>#msn_ylw-pushpin0</styleUrl>
			<Polygon>
				<tessellate>1</tessellate>
				<outerBoundaryIs>
					<LinearRing>
						<coordinates>
							-9.225446206287522,51.16265791059835,0 -9.120209295089115,51.15937472630999,0 -8.808879573529021,51.169027659667,0 -8.117855049588222,51.3052049832006,0 -8.039970769448585,51.30694189075019,0 -7.838508017710488,51.30946578879968,0 -7.290355932597782,51.45366014246473,0 -7.253033330549124,51.46429886516375,0 -6.811737095341729,51.67985078100139,0 -6.35591428668214,51.91018654786915,0 -6.276318170202893,52.03649132397724,0 -6.524950302211757,52.06681523273701,0 -7.287772827991839,52.05188258703674,0 -9.346527028440017,51.30390632408943,0 -9.225446206287522,51.16265791059835,0 
						</coordinates>
					</LinearRing>
				</outerBoundaryIs>
			</Polygon>
		</Placemark>
		<atom:link rel="app" href="https://www.google.com/earth/about/versions/#earth-pro" title="Google Earth Pro 7.3.7.1094"></atom:link>
	</Folder>
</Document>
</kml>
