{
  "type": "FeatureCollection",
  "features": [
    {
      "type": "Feature",
      "geometry": {
        "type": "Point",
        "coordinates": [
          1.691313183347662,
          58.61972467118701
        ]
      },
      "properties": {
        "Id": "DEP001",
        "Start time": "2024-06-01 08:00:00",
        "Completion time": "2024-06-15 17:00:00",
        "Email": "alice.johnson@oceanlab.ac.uk",
        "Name": "Alice Johnson",
        "Project Name": "North Sea Baseline Survey",
        "Main Contact for this deployment submission": "Dr. Alice Johnson",
        "What are the deployments that you are submitting?": "Glider transect across North Sea shelf edge",
        "Deployment Domain": "Marine",
        "Platform type: e.g. glider, drifter, drone etc": "Glider",
        "Where and when is this deployment occuring?": "North Sea, 54°N–57°N, June 2024",
        "What observations is the deployment trying to capture/measure": "Temperature, salinity, dissolved oxygen, chlorophyll fluorescence",
        "Please provide details of any sampling strategy (Swath, points, constellation, lawnmower etc)": "Lawnmower pattern at 200m depth intervals along three parallel transects",
        "What notable limitations does your platform have?": "Limited to depths below 1000m; communication windows restricted to surface intervals every 6 hours",
        "colour": "red",
        "start date": "01/01/2026",
        "end date": "01/02/2026",
        "style_id": "DEP001"
      }
    },
    {
      "type": "Feature",
      "geometry": {
        "type": "LineString",
        "coordinates": [
          [
            -9.427121642894894,
            58.4163058949924
          ],
          [
            -8.468502051290491,
            58.34111734359385
          ],
          [
            -8.673830274638085,
            58.33876046951355
          ],
          [
            -8.781022810298202,
            58.35880671169617
          ],
          [
            -9.070715051392433,
            58.35104544915674
          ],
          [
            -9.381831731540117,
            58.36720571928451
          ],
          [
            -9.453066998697308,
            58.38016177449438
          ],
          [
            -9.669828192548975,
            58.35811317885906
          ],
          [
            -9.979883036302667,
            58.37282836158031
          ],
          [
            -10.15767888550833,
            58.40427234416653
          ],
          [
            -10.2662489921045,
            58.36242511120255
          ],
          [
            -10.46868082850526,
            58.35720309324036
          ],
          [
            -10.6462288299444,
            58.38793097718158
          ],
          [
            -10.86001191019451,
            58.36397041955954
          ],
          [
            -11.03741341897505,
            58.39415064603162
          ],
          [
            -11.2387745810332,
            58.38771860845055
          ],
          [
            -11.41601739988943,
            58.41735848545049
          ],
          [
            -11.59343936623788,
            58.44673295615669
          ],
          [
            -11.69997515804898,
            58.46423059231164
          ],
          [
            -11.9488014764629,
            58.50468759196748
          ],
          [
            -12.33787760555481,
            58.50692655149664
          ],
          [
            -12.51551851775431,
            58.53498796236369
          ],
          [
            -12.69327874124026,
            58.56276272994268
          ],
          [
            -12.97765257790146,
            58.60670675775103
          ],
          [
            -13.15561587365494,
            58.63383555945092
          ],
          [
            -13.33376316570609,
            58.6607010305832
          ],
          [
            -13.51182024581223,
            58.68732661600456
          ],
          [
            -13.58307424504118,
            58.69790985571571
          ],
          [
            -13.86838499767211,
            58.73982821545424
          ],
          [
            -13.93978092795521,
            58.75020194082038
          ],
          [
            -14.22544440828858,
            58.79132192131542
          ],
          [
            -14.26640992299032,
            58.85653569664344
          ],
          [
            -14.44596518902747,
            58.88171907134249
          ],
          [
            -14.60500796930754,
            58.94355199867963
          ],
          [
            -14.71246720363286,
            58.95850876959197
          ],
          [
            -14.93425305628257,
            59.04811439933755
          ],
          [
            -15.09464782328058,
            59.10930321223518
          ],
          [
            -15.27498417814387,
            59.13342361946404
          ],
          [
            -15.53455367424008,
            59.22692259059227
          ],
          [
            -15.60685460313487,
            59.23637574629812
          ],
          [
            -15.89635814160775,
            59.2737753709417
          ],
          [
            -16.0775600340349,
            59.29679342056221
          ],
          [
            -16.15008555736617,
            59.30593486165386
          ],
          [
            -16.31301976030718,
            59.36563777292222
          ],
          [
            -16.60374211181022,
            59.40150825273891
          ],
          [
            -16.67649893423423,
            59.41037430629751
          ],
          [
            -16.83187956659583,
            59.48791920750091
          ],
          [
            -17.0142517885107,
            59.50972894682673
          ],
          [
            -17.19683489899719,
            59.53126542098937
          ],
          [
            -17.36237440893995,
            59.58965634302468
          ],
          [
            -17.51992744041761,
            59.66639190354897
          ],
          [
            -17.68658235632258,
            59.72440119170728
          ],
          [
            -17.87048289187056,
            59.74506395324858
          ],
          [
            -18.14037746717034,
            59.83349060433068
          ],
          [
            -18.30870746534851,
            59.89083793511114
          ],
          [
            -18.38267822824971,
            59.89882481689724
          ],
          [
            -18.5677470171144,
            59.91861190436438
          ],
          [
            -18.72923275537526,
            59.99414693098581
          ],
          [
            -18.84066920381682,
            60.00576856834569
          ],
          [
            -19.01100740425052,
            60.06228986940158
          ],
          [
            -19.24887101352129,
            60.1449099813857
          ],
          [
            -19.43572399487001,
            60.16356805975077
          ],
          [
            -19.60792603684149,
            60.21937993535623
          ],
          [
            -19.77329082674827,
            60.29382433456056
          ],
          [
            -20.05974783789184,
            60.35999405565826
          ],
          [
            -20.28835227618162,
            60.4784473894974
          ],
          [
            -20.45666715563303,
            60.55229727581956
          ],
          [
            -20.64657008668426,
            60.56947819005808
          ],
          [
            -20.93739917799389,
            60.6341414126975
          ],
          [
            -21.10819154599546,
            60.7072942622172
          ],
          [
            -21.36303961135488,
            60.76792743071856
          ],
          [
            -21.53567020334338,
            60.84066495701881
          ],
          [
            -21.7280404666916,
            60.85644347723932
          ],
          [
            -22.024133241673,
            60.91914271523752
          ],
          [
            -22.10140127677187,
            60.92525610587901
          ],
          [
            -22.2768454516942,
            60.99722483644801
          ],
          [
            -22.45899213137352,
            61.05001860711432
          ],
          [
            -22.75311836965857,
            61.13036952240327
          ],
          [
            -22.81983926038205,
            61.17412002149378
          ],
          [
            -23.11641454633855,
            61.254006899305
          ],
          [
            -23.30204068844291,
            61.30607412057606
          ],
          [
            -23.38072641884848,
            61.31159293742523
          ],
          [
            -23.56212779798923,
            61.38251319514979
          ],
          [
            -23.86826407558723,
            61.44201561546545
          ],
          [
            -24.06646182979664,
            61.45504616638978
          ],
          [
            -24.1458162712492,
            61.46018770371908
          ],
          [
            -24.32096057682065,
            61.5686199109232
          ],
          [
            -24.64018293659739,
            61.58837588328235
          ],
          [
            -24.8270321251446,
            61.65805522815079
          ],
          [
            -25.01886893329102,
            61.70812600671901
          ],
          [
            -25.21990139279422,
            61.71968422206698
          ],
          [
            -25.30038378736814,
            61.72422175047163
          ],
          [
            -25.49012451734763,
            61.79323358387934
          ],
          [
            -25.69234359014392,
            61.80430639383587
          ],
          [
            -25.8947995709917,
            61.8150887128655
          ],
          [
            -26.21941335790431,
            61.83188760531925
          ],
          [
            -26.49764390169192,
            61.88469487034759
          ],
          [
            -26.7014885703359,
            61.89444122940586
          ],
          [
            -26.90578127915414,
            61.90401893007376
          ],
          [
            -27.1103248793403,
            61.91331630748572
          ],
          [
            -27.31510254444925,
            61.92231548395615
          ],
          [
            -27.5202421065128,
            61.93109387501799
          ],
          [
            -27.72576776607184,
            61.93964848891536
          ],
          [
            -27.93152734301567,
            61.94790081139116
          ],
          [
            -28.13752101125019,
            61.95585497158892
          ],
          [
            -28.34452941907756,
            61.96388851204807
          ],
          [
            -28.55130677228041,
            61.97138399857241
          ],
          [
            -28.7583297886498,
            61.97856630785626
          ],
          [
            -28.96580117700066,
            61.9855645192178
          ],
          [
            -29.17362519034612,
            61.99229431596719
          ],
          [
            -29.38167875035332,
            61.99872498113255
          ],
          [
            -29.59007243710767,
            62.00487749266758
          ],
          [
            -29.79895626012564,
            62.0108264649593
          ],
          [
            -30.00807537925644,
            62.01646032791378
          ],
          [
            -30.21742416341205,
            62.02179054888782
          ],
          [
            -30.42592617308419,
            62.08550317816335
          ],
          [
            -30.55150680199075,
            62.12753448102072
          ],
          [
            -30.76137902366184,
            62.22998436941473
          ],
          [
            -30.84522932202884,
            62.32962874585362
          ],
          [
            -31.05825730538705,
            62.39280893871989
          ],
          [
            -31.05804633184224,
            62.49077933128207
          ],
          [
            -31.27306300051546,
            62.53422764012324
          ],
          [
            -31.4038468996894,
            62.63495214566278
          ],
          [
            -31.62300335843297,
            62.737338226111
          ],
          [
            -31.84449238095636,
            62.83969896635682
          ],
          [
            -31.93444886242342,
            62.90036464153972
          ],
          [
            -32.15884575078176,
            63.00251930730336
          ],
          [
            -32.16080985653201,
            63.04209846464268
          ],
          [
            -32.38760593508113,
            63.14414060786685
          ],
          [
            -32.61679130169434,
            63.24614194848115
          ],
          [
            -32.84874360232671,
            63.34821281450657
          ],
          [
            -33.083260611592,
            63.45026817675281
          ],
          [
            -33.32038531469665,
            63.55230253923163
          ],
          [
            -33.55500057030984,
            63.61410638180961
          ],
          [
            -33.78848094655416,
            63.65559769896719
          ],
          [
            -33.93419728867295,
            63.71653282814113
          ],
          [
            -34.26248594780326,
            63.75803441613662
          ],
          [
            -34.50296848257363,
            63.81884884527677
          ],
          [
            -34.74207658512402,
            63.85944572904779
          ],
          [
            -34.9857602383826,
            63.91980644578258
          ]
        ]
      },
      "properties": {
        "Id": "DEP002",
        "Start time": "2024-07-10 09:30:00",
        "Completion time": "2024-07-25 16:00:00",
        "Email": "ben.carter@metoffice.gov.uk",
        "Name": "Ben Carter",
        "Project Name": "Atlantic Drift Monitoring Programme",
        "Main Contact for this deployment submission": "Ben Carter",
        "What are the deployments that you are submitting?": "Array of surface drifters tracking Gulf Stream extension",
        "Deployment Domain": "Marine",
        "Platform type: e.g. glider, drifter, drone etc": "Drifter",
        "Where and when is this deployment occuring?": "Northeast Atlantic, 45°N–50°N, July 2024",
        "What observations is the deployment trying to capture/measure": "Sea surface temperature, surface currents, atmospheric pressure",
        "Please provide details of any sampling strategy (Swath, points, constellation, lawnmower etc)": "Constellation of 12 drifters deployed at 50km spacing along a zonal line",
        "What notable limitations does your platform have?": "No active propulsion; track entirely dependent on ambient currents. Battery life approximately 18 months.",
        "colour": "blue",
        "start date": "01/01/2026",
        "end date": "01/01/2027",
        "style_id": "DEP002"
      }
    },
    {
      "type": "Feature",
      "geometry": {
        "type": "Polygon",
        "coordinates": [
          [
            [
              -9.225446206287522,
              51.16265791059835
            ],
            [
              -9.120209295089115,
              51.15937472630999
            ],
            [
              -8.80887957352902,
              51.169027659667
            ],
            [
              -8.117855049588222,
              51.3052049832006
            ],
            [
              -8.039970769448585,
              51.30694189075019
            ],
            [
              -7.838508017710488,
              51.30946578879968
            ],
            [
              -7.290355932597782,
              51.45366014246473
            ],
            [
              -7.253033330549124,
              51.46429886516375
            ],
            [
              -6.811737095341729,
              51.67985078100139
            ],
            [
              -6.35591428668214,
              51.91018654786915
            ],
            [
              -6.276318170202893,
              52.03649132397724
            ],
            [
              -6.524950302211757,
              52.06681523273701
            ],
            [
              -7.287772827991839,
              52.05188258703674
            ],
            [
              -9.346527028440017,
              51.30390632408943
            ],
            [
              -9.225446206287522,
              51.16265791059835
            ]
          ]
        ]
      },
      "properties": {
        "Id": "DEP003",
        "Start time": "2024-08-05 07:00:00",
        "Completion time": "2024-08-07 19:00:00",
        "Email": "priya.nair@noc.ac.uk",
        "Name": "Priya Nair",
        "Project Name": "Coastal Habitat Mapping Initiative",
        "Main Contact for this deployment submission": "Dr. Priya Nair",
        "What are the deployments that you are submitting?": "UAV survey of intertidal seagrass meadows",
        "Deployment Domain": "Coastal",
        "Platform type: e.g. glider, drifter, drone etc": "Drone",
        "Where and when is this deployment occuring?": "Solent coastline, Hampshire, UK, August 2024",
        "What observations is the deployment trying to capture/measure": "Seagrass extent and density, sediment type, surface water turbidity",
        "Please provide details of any sampling strategy (Swath, points, constellation, lawnmower etc)": "Swath survey at 40m altitude with 70% overlap; ground truth points collected at 500m intervals",
        "What notable limitations does your platform have?": "Maximum flight time of 25 minutes per battery; restricted to wind speeds below 15 knots; requires CAA authorisation for flights over 400ft",
        "colour": "green",
        "start date": "01/05/2026",
        "end date": "01/10/2026",
        "style_id": "DEP003"
      }
    }
  ]
}